[{"OBJECT_NAME":"STARLINK-32311","OBJECT_ID":"2024-222A","EPOCH":"2026-02-10T00:59:04.784640","MEAN_MOTION":15.27593652,"ECCENTRICITY":0.0001609,"INCLINATION":43.0014,"RA_OF_ASC_NODE":277.3481,"ARG_OF_PERICENTER":261.2697,"MEAN_ANOMALY":98.7972,"EPHEMERIS_TYPE":0,"CLASSIFICATION_TYPE":"U","NORAD_CAT_ID":62114,"ELEMENT_SET_NO":999,"REV_AT_EPOCH":6885,"BSTAR":0.00079086,"MEAN_MOTION_DOT":0.00021573,"MEAN_MOTION_DDOT":0},{"OBJECT_NAME":"STARLINK-32470","OBJECT_ID":"2024-222B","EPOCH":"2026-02-10T02:43:36.100128","MEAN_MOTION":15.27613061,"ECCENTRICITY":0.0002677,"INCLINATION":42.9964,"RA_OF_ASC_NODE":291.7491,"ARG_OF_PERICENTER":255.8213,"MEAN_ANOMALY":104.2341,"EPHEMERIS_TYPE":0,"CLASSIFICATION_TYPE":"U","NORAD_CAT_ID":62115,"ELEMENT_SET_NO":999,"REV_AT_EPOCH":6868,"BSTAR":0.0013455,"MEAN_MOTION_DOT":0.00036988,"MEAN_MOTION_DDOT":0},{"OBJECT_NAME":"STARLINK-32502","OBJECT_ID":"2024-222C","EPOCH":"2026-02-10T01:40:54.480000","MEAN_MOTION":15.27612589,"ECCENTRICITY":0.0001619,"INCLINATION":42.9998,"RA_OF_ASC_NODE":292.2752,"ARG_OF_PERICENTER":246.5408,"MEAN_ANOMALY":113.5273,"EPHEMERIS_TYPE":0,"CLASSIFICATION_TYPE":"U","NORAD_CAT_ID":62116,"ELEMENT_SET_NO":999,"REV_AT_EPOCH":6858,"BSTAR":0.0012911,"MEAN_MOTION_DOT":0.00035474,"MEAN_MOTION_DDOT":0},{"OBJECT_NAME":"STARLINK-32521","OBJECT_ID":"2024-222D","EPOCH":"2026-02-10T01:21:13.485312","MEAN_MOTION":15.27602857,"ECCENTRICITY":8.1e-5,"INCLINATION":43,"RA_OF_ASC_NODE":288.5964,"ARG_OF_PERICENTER":255.6159,"MEAN_ANOMALY":104.4602,"EPHEMERIS_TYPE":0,"CLASSIFICATION_TYPE":"U","NORAD_CAT_ID":62117,"ELEMENT_SET_NO":999,"REV_AT_EPOCH":6856,"BSTAR":0.0009456,"MEAN_MOTION_DOT":0.00025868,"MEAN_MOTION_DDOT":0},{"OBJECT_NAME":"STARLINK-32549","OBJECT_ID":"2024-222E","EPOCH":"2026-02-10T00:49:05.299104","MEAN_MOTION":15.2760399,"ECCENTRICITY":0.0003059,"INCLINATION":42.9994,"RA_OF_ASC_NODE":292.007,"ARG_OF_PERICENTER":241.6333,"MEAN_ANOMALY":118.421,"EPHEMERIS_TYPE":0,"CLASSIFICATION_TYPE":"U","NORAD_CAT_ID":62118,"ELEMENT_SET_NO":999,"REV_AT_EPOCH":6858,"BSTAR":0.0010523,"MEAN_MOTION_DOT":0.00028831,"MEAN_MOTION_DDOT":0},{"OBJECT_NAME":"STARLINK-32535","OBJECT_ID":"2024-222F","EPOCH":"2026-02-10T00:18:32.683392","MEAN_MOTION":15.27599029,"ECCENTRICITY":0.0003049,"INCLINATION":43.0034,"RA_OF_ASC_NODE":289.2467,"ARG_OF_PERICENTER":245.0722,"MEAN_ANOMALY":114.9813,"EPHEMERIS_TYPE":0,"CLASSIFICATION_TYPE":"U","NORAD_CAT_ID":62119,"ELEMENT_SET_NO":999,"REV_AT_EPOCH":6856,"BSTAR":0.00089932,"MEAN_MOTION_DOT":0.00024584,"MEAN_MOTION_DDOT":0},{"OBJECT_NAME":"STARLINK-32548","OBJECT_ID":"2024-222G","EPOCH":"2026-02-10T02:01:15.833856","MEAN_MOTION":15.27604846,"ECCENTRICITY":0.0001846,"INCLINATION":43.0011,"RA_OF_ASC_NODE":292.3832,"ARG_OF_PERICENTER":261.1954,"MEAN_ANOMALY":98.8688,"EPHEMERIS_TYPE":0,"CLASSIFICATION_TYPE":"U","NORAD_CAT_ID":62120,"ELEMENT_SET_NO":999,"REV_AT_EPOCH":6853,"BSTAR":0.00055609,"MEAN_MOTION_DOT":0.00015083,"MEAN_MOTION_DDOT":0},{"OBJECT_NAME":"STARLINK-32525","OBJECT_ID":"2024-222H","EPOCH":"2026-02-10T00:58:20.946144","MEAN_MOTION":15.27607214,"ECCENTRICITY":0.0001616,"INCLINATION":42.9992,"RA_OF_ASC_NODE":292.0503,"ARG_OF_PERICENTER":246.176,"MEAN_ANOMALY":113.8923,"EPHEMERIS_TYPE":0,"CLASSIFICATION_TYPE":"U","NORAD_CAT_ID":62121,"ELEMENT_SET_NO":999,"REV_AT_EPOCH":6853,"BSTAR":0.0011954,"MEAN_MOTION_DOT":0.00032808,"MEAN_MOTION_DDOT":0},{"OBJECT_NAME":"STARLINK-32628","OBJECT_ID":"2024-222J","EPOCH":"2026-02-10T04:00:01.999584","MEAN_MOTION":15.27547058,"ECCENTRICITY":0.000152,"INCLINATION":43.0006,"RA_OF_ASC_NODE":291.5786,"ARG_OF_PERICENTER":285.2077,"MEAN_ANOMALY":310.4585,"EPHEMERIS_TYPE":0,"CLASSIFICATION_TYPE":"U","NORAD_CAT_ID":62122,"ELEMENT_SET_NO":999,"REV_AT_EPOCH":589,"BSTAR":0.0025175,"MEAN_MOTION_DOT":0.000696,"MEAN_MOTION_DDOT":0},{"OBJECT_NAME":"STARLINK-32626","OBJECT_ID":"2024-222K","EPOCH":"2026-02-10T01:52:01.078464","MEAN_MOTION":15.27595936,"ECCENTRICITY":6.58e-5,"INCLINATION":43.0006,"RA_OF_ASC_NODE":292.3343,"ARG_OF_PERICENTER":300.4427,"MEAN_ANOMALY":59.6359,"EPHEMERIS_TYPE":0,"CLASSIFICATION_TYPE":"U","NORAD_CAT_ID":62123,"ELEMENT_SET_NO":999,"REV_AT_EPOCH":6852,"BSTAR":0.00062517,"MEAN_MOTION_DOT":0.00016989,"MEAN_MOTION_DDOT":0},{"OBJECT_NAME":"STARLINK-32608","OBJECT_ID":"2024-222L","EPOCH":"2026-02-10T02:49:10.135488","MEAN_MOTION":15.27607276,"ECCENTRICITY":0.0001156,"INCLINATION":42.9949,"RA_OF_ASC_NODE":291.776,"ARG_OF_PERICENTER":15.1971,"MEAN_ANOMALY":344.8915,"EPHEMERIS_TYPE":0,"CLASSIFICATION_TYPE":"U","NORAD_CAT_ID":62124,"ELEMENT_SET_NO":999,"REV_AT_EPOCH":6852,"BSTAR":0.00084841,"MEAN_MOTION_DOT":0.00023177,"MEAN_MOTION_DDOT":0},{"OBJECT_NAME":"STARLINK-32488","OBJECT_ID":"2024-222M","EPOCH":"2026-02-10T02:06:48.117888","MEAN_MOTION":15.27596736,"ECCENTRICITY":0.0003292,"INCLINATION":43.0079,"RA_OF_ASC_NODE":292.4016,"ARG_OF_PERICENTER":240.533,"MEAN_ANOMALY":119.5194,"EPHEMERIS_TYPE":0,"CLASSIFICATION_TYPE":"U","NORAD_CAT_ID":62125,"ELEMENT_SET_NO":999,"REV_AT_EPOCH":6842,"BSTAR":0.00075629,"MEAN_MOTION_DOT":0.0002062,"MEAN_MOTION_DDOT":0},{"OBJECT_NAME":"STARLINK-32490","OBJECT_ID":"2024-222N","EPOCH":"2026-02-09T23:18:38.542752","MEAN_MOTION":15.27583044,"ECCENTRICITY":0.0001484,"INCLINATION":43.0002,"RA_OF_ASC_NODE":292.3959,"ARG_OF_PERICENTER":251.3521,"MEAN_ANOMALY":108.7169,"EPHEMERIS_TYPE":0,"CLASSIFICATION_TYPE":"U","NORAD_CAT_ID":62126,"ELEMENT_SET_NO":999,"REV_AT_EPOCH":6851,"BSTAR":0.00092496,"MEAN_MOTION_DOT":0.00025281,"MEAN_MOTION_DDOT":0},{"OBJECT_NAME":"STARLINK-32557","OBJECT_ID":"2024-222P","EPOCH":"2026-02-10T02:54:55.142784","MEAN_MOTION":15.27600065,"ECCENTRICITY":0.0002078,"INCLINATION":43.0036,"RA_OF_ASC_NODE":281.2713,"ARG_OF_PERICENTER":262.8483,"MEAN_ANOMALY":97.2133,"EPHEMERIS_TYPE":0,"CLASSIFICATION_TYPE":"U","NORAD_CAT_ID":62127,"ELEMENT_SET_NO":999,"REV_AT_EPOCH":6870,"BSTAR":0.00088851,"MEAN_MOTION_DOT":0.00024284,"MEAN_MOTION_DDOT":0},{"OBJECT_NAME":"STARLINK-32568","OBJECT_ID":"2024-222Q","EPOCH":"2026-02-10T01:46:25.094784","MEAN_MOTION":15.27635545,"ECCENTRICITY":0.0002799,"INCLINATION":43.0002,"RA_OF_ASC_NODE":292.3015,"ARG_OF_PERICENTER":249.7448,"MEAN_ANOMALY":110.3103,"EPHEMERIS_TYPE":0,"CLASSIFICATION_TYPE":"U","NORAD_CAT_ID":62128,"ELEMENT_SET_NO":999,"REV_AT_EPOCH":6826,"BSTAR":0.00075716,"MEAN_MOTION_DOT":0.00020668,"MEAN_MOTION_DDOT":0},{"OBJECT_NAME":"STARLINK-32462","OBJECT_ID":"2024-222R","EPOCH":"2026-02-10T01:43:26.771232","MEAN_MOTION":15.27608523,"ECCENTRICITY":0.0002564,"INCLINATION":43.0067,"RA_OF_ASC_NODE":288.8258,"ARG_OF_PERICENTER":247.2114,"MEAN_ANOMALY":112.8467,"EPHEMERIS_TYPE":0,"CLASSIFICATION_TYPE":"U","NORAD_CAT_ID":62129,"ELEMENT_SET_NO":999,"REV_AT_EPOCH":6856,"BSTAR":0.00075699,"MEAN_MOTION_DOT":0.00020646,"MEAN_MOTION_DDOT":0}]
