STARLINK-32311          
1 62114U 24222A   26041.04102760  .00021573  00000+0  79086-3 0  9999
2 62114  43.0014 277.3481 0001609 261.2697  98.7972 15.27593652 68853
STARLINK-32470          
1 62115U 24222B   26041.11361227  .00036988  00000+0  13455-2 0  9996
2 62115  42.9964 291.7491 0002677 255.8213 104.2341 15.27613061 68687
STARLINK-32502          
1 62116U 24222C   26041.07007500  .00035474  00000+0  12911-2 0  9998
2 62116  42.9998 292.2752 0001619 246.5408 113.5273 15.27612589 68589
STARLINK-32521          
1 62117U 24222D   26041.05640608  .00025868  00000+0  94560-3 0  9996
2 62117  43.0000 288.5964 0000810 255.6159 104.4602 15.27602857 68565
STARLINK-32549          
1 62118U 24222E   26041.03408911  .00028831  00000+0  10523-2 0  9993
2 62118  42.9994 292.0070 0003059 241.6333 118.4210 15.27603990 68582
STARLINK-32535          
1 62119U 24222F   26041.01287828  .00024584  00000+0  89932-3 0  9996
2 62119  43.0034 289.2467 0003049 245.0722 114.9813 15.27599029 68562
STARLINK-32548          
1 62120U 24222G   26041.08421104  .00015083  00000+0  55609-3 0  9990
2 62120  43.0011 292.3832 0001846 261.1954  98.8688 15.27604846 68530
STARLINK-32525          
1 62121U 24222H   26041.04052021  .00032808  00000+0  11954-2 0  9993
2 62121  42.9992 292.0503 0001616 246.1760 113.8923 15.27607214 68534
STARLINK-32628          
1 62122U 24222J   26041.16668981  .00069600  00000+0  25175-2 0  9995
2 62122  43.0006 291.5786 0001520 285.2077 310.4585 15.27547058  5897
STARLINK-32626          
1 62123U 24222K   26041.07779026  .00016989  00000+0  62517-3 0  9993
2 62123  43.0006 292.3343 0000658 300.4427  59.6359 15.27595936 68524
STARLINK-32608          
1 62124U 24222L   26041.11747842  .00023177  00000+0  84841-3 0  9991
2 62124  42.9949 291.7760 0001156  15.1971 344.8915 15.27607276 68521
STARLINK-32488          
1 62125U 24222M   26041.08805692  .00020620  00000+0  75629-3 0  9990
2 62125  43.0079 292.4016 0003292 240.5330 119.5194 15.27596736 68429
STARLINK-32490          
1 62126U 24222N   26040.97127943  .00025281  00000+0  92496-3 0  9993
2 62126  43.0002 292.3959 0001484 251.3521 108.7169 15.27583044 68514
STARLINK-32557          
1 62127U 24222P   26041.12147156  .00024284  00000+0  88851-3 0  9992
2 62127  43.0036 281.2713 0002078 262.8483  97.2133 15.27600065 68708
STARLINK-32568          
1 62128U 24222Q   26041.07390156  .00020668  00000+0  75716-3 0  9995
2 62128  43.0002 292.3015 0002799 249.7448 110.3103 15.27635545 68261
STARLINK-32462          
1 62129U 24222R   26041.07183763  .00020646  00000+0  75699-3 0  9996
2 62129  43.0067 288.8258 0002564 247.2114 112.8467 15.27608523 68564
